{"type": "FeatureCollection", "features": [{"type": "Feature", "properties": {"name": "RF Imataca simplificado"}, "geometry": {"type": "Polygon", "coordinates": [[[-61.38642144, 6.81127963], [-61.38009675, 7.60766536], [-61.40368763, 7.59772893], [-61.40966373, 7.61065319], [-61.43059322, 7.59964948], [-61.43555682, 7.60220088], [-61.43398793, 7.60815244], [-61.44362125, 7.6031143], [-61.44637488, 7.60599062], [-61.44958924, 7.62948504], [-61.46262701, 7.63560235], [-61.46536375, 7.64300088], [-61.45103951, 7.66114604], [-61.45108002, 7.69606005], [-61.45546306, 7.70719791], [-61.46376495, 7.71282851], [-61.48884884, 7.71845104], [-61.51167524, 7.73212776], [-61.51786303, 7.74380099], [-61.51499467, 7.76312857], [-61.52185526, 7.7793657], [-61.53827664, 7.7918381], [-61.54276286, 7.78972849], [-61.55480898, 7.80661624], [-61.563467, 7.80958454], [-61.57643926, 7.80237612], [-61.58313922, 7.80525606], [-61.58991193, 7.83512905], [-61.60485499, 7.84625626], [-61.61868708, 7.86726325], [-61.62234239, 7.87806347], [-61.61310391, 7.89091008], [-61.61987276, 7.94720639], [-61.62875315, 7.9552749], [-61.64094832, 7.95670758], [-61.64991967, 7.96766972], [-61.64877115, 7.99702854], [-61.64267955, 8.00390838], [-61.64517473, 8.00926092], [-61.64219952, 8.02011176], [-61.64764867, 8.04030446], [-61.65220702, 8.03909866], [-61.65359885, 8.04347998], [-61.65041329, 8.0493203], [-61.65512425, 8.05413755], [-61.65811281, 8.06960176], [-61.65487427, 8.0913576], [-61.67465578, 8.09390893], [-61.68446346, 8.10823766], [-61.69220924, 8.10652632], [-61.69452222, 8.10964453], [-62.01069309, 8.11054229], [-62.10902239, 7.99499233], [-62.40457237, 8.51840321], [-62.37439443, 8.52724682], [-62.33474172, 8.55546339], [-62.32163251, 8.55422875], [-62.30336821, 8.55991253], [-62.28156584, 8.55743068], [-62.26832041, 8.56109606], [-62.26101019, 8.56834487], [-62.26164722, 8.57727296], [-62.25618068, 8.58481451], [-62.2338374, 8.58883182], [-62.21535622, 8.57930723], [-62.19392156, 8.58344161], [-62.15142288, 8.56330872], [-62.14240105, 8.56714164], [-62.13208896, 8.58290072], [-62.11936494, 8.58818083], [-62.08190447, 8.59064403], [-62.05946652, 8.58466625], [-62.04914313, 8.58885546], [-62.04141202, 8.5810495], [-62.03851409, 8.54818577], [-62.03268009, 8.53783403], [-62.01235117, 8.53644443], [-61.98663516, 8.5281483], [-61.9724476, 8.5339081], [-61.95895759, 8.53354659], [-61.92476241, 8.52380394], [-61.87348402, 8.53201497], [-61.84151528, 8.5532633], [-61.82226236, 8.5716717], [-61.80511266, 8.57641201], [-61.79293887, 8.58775059], [-61.77767652, 8.58444704], [-61.77085799, 8.5886395], [-61.73867293, 8.57888679], [-61.70024906, 8.59038861], [-61.64570002, 8.57528051], [-61.6236543, 8.5617834], [-61.59435832, 8.5590106], [-61.56506857, 8.54505018], [-61.53624836, 8.52528443], [-61.51398202, 8.5261765], [-61.50061043, 8.53581842], [-61.49556033, 8.52647637], [-61.49679551, 8.51486199], [-61.49286146, 8.50586789], [-61.48153588, 8.49882536], [-61.47057002, 8.49969566], [-61.44239106, 8.49210638], [-61.42740024, 8.47556288], [-61.4032647, 8.4725716], [-61.38521578, 8.47574355], [-61.36223137, 8.48635314], [-61.34187203, 8.46266877], [-61.34379428, 8.45481979], [-61.33340762, 8.44172891], [-61.32978654, 8.42432668], [-61.31453552, 8.42145868], [-61.31049817, 8.41233668], [-61.3033613, 8.41449399], [-61.29208708, 8.40766418], [-61.2906293, 8.3963743], [-61.28475747, 8.3916835], [-61.25958094, 8.4183081], [-61.2496724, 8.41689886], [-61.24892404, 8.43189483], [-61.243177, 8.43984341], [-61.24150121, 8.45300878], [-61.22687159, 8.46325859], [-61.22169225, 8.47392163], [-61.20190214, 8.47270089], [-61.19174335, 8.4761167], [-61.16856969, 8.50107868], [-61.14920722, 8.49007521], [-61.11725445, 8.48969624], [-61.07749667, 8.49409481], [-61.03464241, 8.51276582], [-61.01424348, 8.49941875], [-60.99438145, 8.50888113], [-60.98549572, 8.51855298], [-60.98356645, 8.53150603], [-60.98813215, 8.55094719], [-60.98316241, 8.57381902], [-60.94814447, 8.57698826], [-60.90556804, 8.59723378], [-60.88719788, 8.59842613], [-60.86082773, 8.58810254], [-60.81508758, 8.59241078], [-60.78662285, 8.58843409], [-60.71443669, 8.60857492], [-60.66645427, 8.58310725], [-60.62958309, 8.55328407], [-60.61408118, 8.5465823], [-60.58501228, 8.54051884], [-60.57713338, 8.54318088], [-60.53507221, 8.54039435], [-60.49487838, 8.52716883], [-60.48165777, 8.53324638], [-60.46955348, 8.52552256], [-60.45414703, 8.52854849], [-60.45646115, 8.53002761], [-60.44767963, 8.54422958], [-60.44076143, 8.54707556], [-60.43637463, 8.56234524], [-60.42862246, 8.56495952], [-60.42752555, 8.57148555], [-60.40929599, 8.5769029], [-60.40696004, 8.58534511], [-60.41970022, 8.59700609], [-60.40975401, 8.60707804], [-60.40661054, 8.62604192], [-60.40186794, 8.62781704], [-60.40053124, 8.63474777], [-60.35623095, 8.64275794], [-60.22439748, 8.62604162], [-60.19861368, 8.6152114], [-60.17015849, 8.61354834], [-60.12297595, 8.59653002], [-60.07624011, 8.59068549], [-60.04315721, 8.5719775], [-60.02179744, 8.54813684], [-59.99985077, 8.53238516], [-59.81256543, 8.29494642], [-59.80355106, 8.27493222], [-59.82084949, 8.26485529], [-59.81983283, 8.25367486], [-59.82582946, 8.23501733], [-59.9433284, 8.21389808], [-59.94679962, 8.19624709], [-59.97488606, 8.18909673], [-59.98208124, 8.17267406], [-59.99329002, 8.16130331], [-59.98198225, 8.14477879], [-59.981536, 8.13779279], [-59.99662148, 8.1217801], [-60.00097437, 8.08725954], [-60.00866324, 8.07953817], [-60.00692763, 8.06166634], [-60.02343326, 8.05035906], [-60.02979582, 8.0391493], [-60.04108505, 8.03962823], [-60.04830821, 8.03088123], [-60.05914807, 8.02706531], [-60.0762425, 8.03575129], [-60.08413291, 8.03502133], [-60.08924492, 8.04008054], [-60.10614434, 8.03558337], [-60.14050078, 7.99466259], [-60.19044674, 7.96566888], [-60.19741071, 7.97176942], [-60.19975786, 7.96246121], [-60.20867419, 7.95597994], [-60.21592437, 7.95597442], [-60.21843186, 7.94294452], [-60.22501519, 7.94234704], [-60.22737699, 7.92799687], [-60.23576495, 7.92990477], [-60.23672546, 7.92449003], [-60.24922125, 7.91508556], [-60.25591965, 7.91484954], [-60.2694209, 7.89990307], [-60.29345587, 7.88557509], [-60.29423089, 7.87785468], [-60.30710666, 7.87939225], [-60.31384991, 7.86933346], [-60.32236795, 7.86648744], [-60.32071925, 7.8621668], [-60.33544195, 7.85256479], [-60.34514558, 7.85130691], [-60.36579376, 7.8388041], [-60.40018245, 7.82552625], [-60.45211361, 7.83888309], [-60.47712866, 7.82916519], [-60.49973998, 7.83036617], [-60.53026997, 7.81961083], [-60.53610351, 7.81228854], [-60.53932078, 7.78585477], [-60.56358176, 7.760066], [-60.5668453, 7.74242526], [-60.58101748, 7.73261861], [-60.56744641, 7.7102006], [-60.57792046, 7.68450253], [-60.58863065, 7.67289504], [-60.58587049, 7.66433892], [-60.5905874, 7.65517385], [-60.58632542, 7.63658647], [-60.59295966, 7.63596373], [-60.60734216, 7.64615696], [-60.61601609, 7.64532822], [-60.62376431, 7.63330516], [-60.62389493, 7.62604843], [-60.61762621, 7.61955176], [-60.6265935, 7.60645064], [-60.63760753, 7.60322992], [-60.64042428, 7.59663843], [-60.63743193, 7.58064274], [-60.65516826, 7.56861833], [-60.66354852, 7.57328189], [-60.67372205, 7.56785913], [-60.68755263, 7.58151742], [-60.69023444, 7.57799762], [-60.68627875, 7.56050536], [-60.69563415, 7.56410689], [-60.70390084, 7.56123107], [-60.70860172, 7.55607665], [-60.70999204, 7.54487615], [-60.71903166, 7.54134403], [-60.70975074, 7.53563742], [-60.71120673, 7.52741996], [-60.70479811, 7.52155662], [-60.7081887, 7.51572636], [-60.70232138, 7.51029062], [-60.70331865, 7.49800344], [-60.69153284, 7.47802999], [-60.68334172, 7.4789361], [-60.6759332, 7.46882839], [-60.63888059, 7.4498688], [-60.63604504, 7.43660364], [-60.64071851, 7.42956975], [-60.63983309, 7.41901749], [-60.62697366, 7.41271273], [-60.61358355, 7.39910227], [-60.60623989, 7.3976439], [-60.61059684, 7.39387136], [-60.60526122, 7.38098164], [-60.60975342, 7.37221178], [-60.59094397, 7.35324883], [-60.59650459, 7.34269524], [-60.58924316, 7.33623944], [-60.58640484, 7.31696448], [-60.58990879, 7.31172317], [-60.60365862, 7.31169703], [-60.61349968, 7.30282861], [-60.61049556, 7.29240089], [-60.61528802, 7.28647016], [-60.61364505, 7.28220457], [-60.62738627, 7.27505524], [-60.63368694, 7.2662218], [-60.63170337, 7.25609765], [-60.63506218, 7.24897501], [-60.62630343, 7.23467623], [-60.62152989, 7.21465898], [-60.61498708, 7.20766556], [-60.60471105, 7.21026003], [-60.5983419, 7.20646684], [-60.59689138, 7.18802175], [-60.58602635, 7.17885441], [-60.5747468, 7.17799064], [-60.56258229, 7.15978752], [-60.55611698, 7.15895787], [-60.54151998, 7.127131], [-60.53684823, 7.12772066], [-60.53805379, 7.13577957], [-60.52362646, 7.14177572], [-60.51732511, 7.16096455], [-60.51882871, 7.1690432], [-60.50855885, 7.16903284], [-60.50792371, 7.17934103], [-60.49460591, 7.18897467], [-60.47736363, 7.19147375], [-60.45476661, 7.21472772], [-60.43696969, 7.2062962], [-60.41666292, 7.17942407], [-60.40240371, 7.17778931], [-60.3752259, 7.19173175], [-60.3615154, 7.19070422], [-60.34586772, 7.17425823], [-60.34213868, 7.15890214], [-60.3233509, 7.15535059], [-60.28754404, 7.12928953], [-60.2859814, 7.11813009], [-60.29128797, 7.11252272], [-60.28750842, 7.09373305], [-60.29307472, 7.08693435], [-60.29347949, 7.07024742], [-60.30757664, 7.05058525], [-60.324413, 7.04984165], [-60.33631067, 7.04282513], [-60.33577515, 7.036813], [-60.36181384, 7.00001042], [-60.36276594, 6.97535521], [-60.37310587, 6.93407974], [-60.38018796, 6.93215789], [-60.3943217, 6.94701056], [-60.40256873, 6.95039036], [-60.44413126, 6.93890429], [-60.47660884, 6.91122513], [-60.49581779, 6.88688027], [-60.50768078, 6.88189927], [-60.53117223, 6.88225605], [-60.54252293, 6.86428417], [-60.55121995, 6.85759546], [-60.59749741, 6.85284007], [-60.60852614, 6.84446245], [-60.66168268, 6.83278384], [-60.68348709, 6.80787006], [-60.69254611, 6.7854341], [-60.70844391, 6.76398796], [-60.71838562, 6.75719221], [-60.75780085, 6.7666583], [-60.81273605, 6.79810336], [-60.81959367, 6.79745634], [-60.83908086, 6.78345086], [-60.85175516, 6.78435674], [-60.87880911, 6.79953606], [-60.89381398, 6.81370382], [-60.90987076, 6.81909804], [-60.9212955, 6.81019767], [-60.92447991, 6.79311646], [-60.91690061, 6.77643228], [-60.90384651, 6.77122334], [-60.89880228, 6.76033561], [-60.91277837, 6.74867069], [-60.932153, 6.74535411], [-60.93841524, 6.73785013], [-60.94095267, 6.72580119], [-60.94884178, 6.7205186], [-60.98163825, 6.71850314], [-61.00246588, 6.73341491], [-61.01198772, 6.73131108], [-61.02392265, 6.72054675], [-61.04459898, 6.71949054], [-61.07545673, 6.732523], [-61.07954613, 6.72976353], [-61.08773275, 6.70595449], [-61.10410219, 6.71955248], [-61.12469278, 6.72454099], [-61.13678148, 6.72518382], [-61.14653972, 6.71553764], [-61.15164584, 6.70204008], [-61.14818228, 6.69724423], [-61.15041677, 6.6921985], [-61.16460007, 6.69358975], [-61.16104409, 6.68203966], [-61.167124, 6.68363552], [-61.1704281, 6.67783414], [-61.17757687, 6.67892752], [-61.18122623, 6.6751074], [-61.18389643, 6.65964726], [-61.18945791, 6.65462244], [-61.18031448, 6.63533964], [-61.19990336, 6.62683054], [-61.19887703, 6.61811983], [-61.20637369, 6.59522633], [-61.20934923, 6.5924522], [-61.21523167, 6.5959905], [-61.22320429, 6.59400262], [-61.21868286, 6.57896823], [-61.22661336, 6.57859861], [-61.23022093, 6.57344851], [-61.21814171, 6.56842377], [-61.22357466, 6.55584792], [-61.21447738, 6.55647567], [-61.20860217, 6.55103886], [-61.21132188, 6.54382423], [-61.2075874, 6.54150533], [-61.21859654, 6.54212306], [-61.22117462, 6.5288861], [-61.21270621, 6.52823219], [-61.2105829, 6.5329806], [-61.20218675, 6.52472289], [-61.20464041, 6.53636822], [-61.19533642, 6.53930064], [-61.19513371, 6.53025826], [-61.19006032, 6.52826004], [-61.1793963, 6.5323174], [-61.1806232, 6.52551354], [-61.17142606, 6.52145693], [-61.17447277, 6.51136862], [-61.16968756, 6.50724647], [-61.17296176, 6.49671591], [-61.18191663, 6.4926161], [-61.18448168, 6.48562717], [-61.1747453, 6.48339517], [-61.18090235, 6.4754517], [-61.16350181, 6.46045259], [-61.15737731, 6.46189521], [-61.15619939, 6.4676865], [-61.15111109, 6.46751439], [-61.15006753, 6.46118161], [-61.15599109, 6.45529906], [-61.14684813, 6.45164934], [-61.14839633, 6.44845435], [-61.15276516, 6.45005241], [-61.15394746, 6.44052701], [-61.14968938, 6.43331467], [-61.14259611, 6.43282784], [-61.14830848, 6.42776733], [-61.14569684, 6.41765857], [-61.14943851, 6.41515865], [-61.15370581, 6.41981219], [-61.15619835, 6.4178502], [-61.15337107, 6.41488345], [-61.15707234, 6.41103609], [-61.15631325, 6.39333919], [-61.16586444, 6.39632991], [-61.16432243, 6.39028466], [-61.15649835, 6.3896148], [-61.15970375, 6.38027737], [-61.16591346, 6.38254183], [-61.15646127, 6.36959689], [-61.1672222, 6.35496077], [-61.17156791, 6.34501244], [-61.16969553, 6.34038562], [-61.17502386, 6.34391243], [-61.17415374, 6.33693833], [-61.18188323, 6.33345737], [-61.17324028, 6.32943068], [-61.16335342, 6.31685528], [-61.16236679, 6.30190619], [-61.15433858, 6.29284548], [-61.14499598, 6.29528077], [-61.1386958, 6.29081903], [-61.14039085, 6.28165709], [-61.13511552, 6.27617732], [-61.1203546, 6.27786965], [-61.11597285, 6.27270034], [-61.13026003, 6.25935219], [-61.13319964, 6.24313338], [-61.13089567, 6.23549426], [-61.1394215, 6.22349937], [-61.13184763, 6.20895216], [-61.12461947, 6.21171136], [-61.13033531, 6.20482396], [-61.12271462, 6.1985404], [-61.12506857, 6.19196668], [-61.13152666, 6.19230591], [-61.13422743, 6.17953077], [-61.16320452, 6.188438], [-61.16993019, 6.18456431], [-61.17696711, 6.19003148], [-61.18685671, 6.17492955], [-61.18097484, 6.15921329], [-61.18211306, 6.15124236], [-61.19002577, 6.14343011], [-61.18742086, 6.13637778], [-61.2017704, 6.1377191], [-61.20056515, 6.13076196], [-61.20686742, 6.11538483], [-61.2115732, 6.11825775], [-61.21293071, 6.11474498], [-61.22040018, 6.12870319], [-61.22500572, 6.12641278], [-61.2283642, 6.12975125], [-61.24006653, 6.111932], [-61.25089878, 6.11150615], [-61.25718027, 6.11602938], [-61.26744252, 6.11312392], [-61.27231868, 6.09676436], [-61.27729338, 6.0975488], [-61.27779959, 6.08608496], [-61.2922088, 6.07696193], [-61.2898741, 6.07256007], [-61.30088448, 6.06406789], [-61.30105365, 6.05620167], [-61.30917047, 6.05439136], [-61.31758894, 6.03091651], [-61.32428127, 6.02813393], [-61.32982762, 6.01908142], [-61.32257578, 6.03350897], [-61.32619551, 6.04013001], [-61.34353122, 6.03336496], [-61.35197466, 6.02496294], [-61.35664597, 6.02744567], [-61.35596628, 6.0341984], [-61.35863985, 6.03119527], [-61.36412414, 6.03368039], [-61.3732481, 6.02416776], [-61.37778203, 6.03647011], [-61.391651, 6.03816599], [-61.40315383, 6.05216171], [-61.41253792, 6.04635662], [-61.41226368, 6.03816314], [-61.42279655, 6.03165575], [-61.45020884, 6.0260102], [-61.45860985, 6.01937835], [-61.46453995, 6.02094137], [-61.47542977, 6.01248949], [-61.47850431, 6.00471198], [-61.49603964, 6.0035215], [-61.50031153, 5.99377565], [-61.49522289, 5.98841725], [-61.4984175, 5.97950946], [-61.49611659, 5.96872381], [-61.49953767, 5.96613775], [-61.51213203, 5.97141691], [-61.51223393, 5.98386054], [-61.52098415, 5.98465289], [-61.51994196, 5.9926533], [-61.53202934, 6.00545479], [-61.54459834, 6.00377915], [-61.54389378, 5.99694958], [-61.55829571, 6.01610526], [-61.5627341, 6.01489612], [-61.57115813, 5.99896563], [-61.57636455, 6.00106818], [-61.57974341, 5.99034233], [-61.59891033, 6.01883341], [-61.60368463, 6.02051866], [-61.60169954, 6.03378954], [-61.61519668, 6.03690774], [-61.60919118, 6.0503764], [-61.61871454, 6.06747491], [-61.61515632, 6.09179297], [-61.63104778, 6.09544188], [-61.6355851, 6.09107627], [-61.63155299, 6.08856099], [-61.63262915, 6.08458454], [-61.64011088, 6.08047949], [-61.64211258, 6.08925681], [-61.66274722, 6.09301614], [-61.65721999, 6.11404714], [-61.63534089, 6.10908148], [-61.63211556, 6.1126275], [-61.62183615, 6.11172403], [-61.62350743, 6.12243584], [-61.63996038, 6.14378454], [-61.63713722, 6.15251346], [-61.66537318, 6.1453859], [-61.67477529, 6.15061843], [-61.68185283, 6.14586974], [-61.68409262, 6.14261048], [-61.67259352, 6.13768044], [-61.67588245, 6.11563083], [-61.69190403, 6.11465705], [-61.70474088, 6.10423345], [-61.70761574, 6.1148036], [-61.71245597, 6.10833971], [-61.72387045, 6.11082682], [-61.73591379, 6.14954527], [-61.74734783, 6.15182408], [-61.75373697, 6.1437446], [-61.76184405, 6.14290417], [-61.78499211, 6.15965263], [-61.80322211, 6.15790304], [-61.81091242, 6.16990369], [-61.83048951, 6.16388731], [-61.85081422, 6.17987654], [-61.86282082, 6.18141272], [-61.86410656, 6.17599792], [-61.85718512, 6.1714609], [-61.85171541, 6.16000814], [-61.83657213, 6.15919757], [-61.82924119, 6.14793052], [-61.83717017, 6.12087814], [-61.83574411, 6.10757994], [-61.85935513, 6.10698824], [-61.86223119, 6.10140487], [-61.87632818, 6.10059332], [-61.89100074, 6.10993043], [-61.89736096, 6.0970731], [-61.89394731, 6.07848877], [-61.8980561, 6.07066458], [-61.91003294, 6.06350745], [-61.91272833, 6.05747103], [-61.93927281, 6.05288356], [-61.94894273, 6.04685146], [-61.95606463, 6.0549963], [-61.96601063, 6.05100855], [-61.98485699, 6.05128818], [-61.99170385, 6.06197371], [-62.00645265, 6.06508518], [-62.04192711, 6.10497366], [-62.04806222, 6.10520155], [-62.05721684, 6.11490474], [-62.07505989, 6.12225305], [-62.08128838, 6.1473455], [-62.07755397, 6.16960779], [-62.07013117, 6.17669517], [-62.07036287, 6.18376881], [-62.09227041, 6.2045648], [-62.11675961, 6.21746809], [-62.12561064, 6.21034625], [-62.14177914, 6.22743166], [-62.15595779, 6.23470867], [-62.14406025, 6.24207941], [-62.13195786, 6.24191498], [-62.12489224, 6.24585595], [-62.11680691, 6.24334602], [-62.10646349, 6.26133724], [-62.07879469, 6.25672194], [-62.06685845, 6.26475089], [-62.06706482, 6.28089646], [-62.06134964, 6.28738046], [-62.04893186, 6.27627812], [-62.04715354, 6.28491273], [-62.03221719, 6.28698375], [-62.02664636, 6.28358168], [-62.0254795, 6.28891596], [-62.03243724, 6.30001779], [-62.02559418, 6.30500681], [-62.02999507, 6.32032784], [-62.01825128, 6.32102949], [-62.01752588, 6.34141498], [-62.01358604, 6.34055736], [-62.00678627, 6.35090055], [-61.99810033, 6.35474603], [-62.00651529, 6.36966787], [-62.00128365, 6.38698747], [-62.00592277, 6.39572453], [-62.00078503, 6.40171127], [-62.0093606, 6.40866512], [-62.01352857, 6.40395178], [-62.01004294, 6.40175627], [-62.00838684, 6.38376318], [-62.01653877, 6.35187789], [-62.02821067, 6.37063165], [-62.03228898, 6.37008755], [-62.03823419, 6.37680981], [-62.04256139, 6.40785061], [-62.05125062, 6.40261166], [-62.04850154, 6.38822532], [-62.05749108, 6.39654501], [-62.05814467, 6.39014246], [-62.06926475, 6.39030734], [-62.07298757, 6.3813958], [-62.08037825, 6.37899396], [-62.08623347, 6.38592368], [-62.10041348, 6.38895155], [-62.10653032, 6.38602261], [-62.10319674, 6.37412268], [-62.0799116, 6.36684581], [-62.08573288, 6.34678546], [-62.07785268, 6.34516151], [-62.0661815, 6.35034151], [-62.06270859, 6.34112759], [-62.05481483, 6.34703769], [-62.05280866, 6.33672285], [-62.04246227, 6.33920936], [-62.04872636, 6.32966047], [-62.04400128, 6.32323905], [-62.04782321, 6.3193205], [-62.05993886, 6.32799848], [-62.07948972, 6.32425262], [-62.09364178, 6.30071525], [-62.10471751, 6.31521541], [-62.11188866, 6.31368094], [-62.10983177, 6.30587159], [-62.11692433, 6.28652726], [-62.10885518, 6.27413103], [-62.11323883, 6.26891946], [-62.12115671, 6.2691317], [-62.12555973, 6.2521253], [-62.13250683, 6.25437994], [-62.13795121, 6.27464086], [-62.15155117, 6.26588017], [-62.1445604, 6.28478217], [-62.14668482, 6.29582065], [-62.15977515, 6.29513622], [-62.16739491, 6.28981175], [-62.17065513, 6.29745109], [-62.16892361, 6.30625823], [-62.17785754, 6.30460805], [-62.17930461, 6.30992888], [-62.17291894, 6.31786948], [-62.18595947, 6.32632915], [-62.18864807, 6.34142976], [-62.19967757, 6.34129312], [-62.20428795, 6.34738756], [-62.20270874, 6.35725346], [-62.21524168, 6.37356302], [-62.21136119, 6.37478724], [-62.20988147, 6.3846895], [-62.21648893, 6.38574882], [-62.21601333, 6.37745361], [-62.22013708, 6.37679051], [-62.23377406, 6.38698679], [-62.23965262, 6.38582863], [-62.24184018, 6.37993438], [-62.24711995, 6.38018626], [-62.26053497, 6.41323909], [-62.26338931, 6.40259689], [-62.27119176, 6.40931955], [-62.28049937, 6.40672758], [-62.28219349, 6.41089078], [-62.28632429, 6.40529753], [-62.30700204, 6.41928273], [-62.3243194, 6.41784042], [-62.33668333, 6.42923571], [-62.33496676, 6.42112869], [-62.3195093, 6.41085102], [-62.30935247, 6.39267438], [-62.30220478, 6.38955316], [-62.29813129, 6.37976951], [-62.30198784, 6.3761204], [-62.29657867, 6.36460743], [-62.30894222, 6.36804316], [-62.3152665, 6.36462329], [-62.31597606, 6.37508076], [-62.32987137, 6.37592209], [-62.33596983, 6.35819179], [-62.34662939, 6.35082418], [-62.34275173, 6.34298591], [-62.31586821, 6.32646145], [-62.30543192, 6.31555706], [-62.31032115, 6.309892], [-62.31970829, 6.32110257], [-62.32332982, 6.31692824], [-62.32631527, 6.32228699], [-62.33078588, 6.31862029], [-62.34562702, 6.33551797], [-62.36170751, 6.32298283], [-62.36688777, 6.32290764], [-62.36662061, 6.32705016], [-62.37713071, 6.32287474], [-62.3644721, 6.33189596], [-62.35709816, 6.32932711], [-62.35534657, 6.34940594], [-62.3487307, 6.35497871], [-62.34448895, 6.37052259], [-62.33602958, 6.3750707], [-62.3363284, 6.38178282], [-62.34717387, 6.39948951], [-62.3429224, 6.40798694], [-62.33802916, 6.40220063], [-62.33635959, 6.40678444], [-62.33879397, 6.41923414], [-62.34408767, 6.41601172], [-62.34870046, 6.42208704], [-62.34947187, 6.43413657], [-62.34314855, 6.44331867], [-62.34401913, 6.44842143], [-62.3345809, 6.45365562], [-62.33008144, 6.45079142], [-62.32880736, 6.44316443], [-62.3197529, 6.43176438], [-62.31839175, 6.44896686], [-62.31631206, 6.44208959], [-62.3106136, 6.44341165], [-62.30900686, 6.44805875], [-62.29645198, 6.4508277], [-62.29940179, 6.45605091], [-62.29386775, 6.4559981], [-62.29503683, 6.467234], [-62.28962521, 6.4701119], [-62.28058502, 6.46817265], [-62.28042987, 6.48199367], [-62.28486805, 6.48985128], [-62.28250989, 6.49478666], [-62.27450557, 6.4954808], [-62.27509477, 6.50717727], [-62.26406819, 6.50894331], [-62.26692645, 6.51481779], [-62.25386575, 6.52211636], [-62.25254428, 6.52899782], [-62.24431019, 6.52573837], [-62.24200942, 6.52814994], [-62.2458841, 6.54369549], [-62.24162244, 6.5449554], [-62.2365133, 6.56234162], [-62.23231588, 6.56286889], [-62.21519646, 6.55020636], [-62.20943229, 6.55210591], [-62.21284163, 6.56391514], [-62.1975151, 6.55590411], [-62.19688773, 6.56364573], [-62.1914769, 6.56508422], [-62.18854439, 6.57197186], [-62.18169126, 6.57042316], [-62.17914449, 6.56256784], [-62.15473718, 6.57676429], [-62.15976404, 6.58868495], [-62.15585271, 6.59103919], [-62.15281342, 6.60721551], [-62.12952641, 6.59455774], [-62.12751914, 6.60453986], [-62.12187417, 6.60506364], [-62.12159241, 6.61096953], [-62.1091421, 6.59819411], [-62.11381157, 6.60707547], [-62.10742243, 6.60897259], [-62.10495912, 6.61571569], [-62.09484027, 6.61427736], [-62.08440908, 6.62044502], [-62.06534836, 6.62184767], [-62.05594712, 6.61886335], [-62.04441185, 6.62975828], [-62.04478787, 6.64589482], [-62.03575616, 6.64811138], [-62.03423326, 6.65445779], [-62.0206992, 6.65533573], [-62.01474564, 6.66976817], [-61.99211747, 6.68087453], [-61.9744321, 6.67671389], [-61.96537972, 6.67984253], [-61.96129368, 6.68284568], [-61.96569616, 6.68856203], [-61.96533932, 6.6990981], [-61.9542682, 6.70264732], [-61.93987216, 6.7000298], [-61.9339075, 6.70984819], [-61.92734375, 6.70806117], [-61.91646341, 6.71516429], [-61.91577439, 6.73222038], [-61.88144267, 6.74784399], [-61.87965871, 6.78006444], [-61.8725458, 6.78463335], [-61.86166774, 6.80515634], [-61.85667248, 6.80933203], [-61.84970993, 6.80368112], [-61.84642205, 6.80512932], [-61.84926725, 6.82241941], [-61.84405498, 6.83016682], [-61.83179316, 6.83446037], [-61.82803445, 6.84338676], [-61.83751028, 6.8612898], [-61.83518489, 6.86493796], [-61.8167609, 6.86874568], [-61.79934692, 6.86303189], [-61.79699757, 6.86528706], [-61.80015821, 6.87149905], [-61.79612392, 6.8781001], [-61.7855161, 6.87543254], [-61.77988709, 6.86139117], [-61.78947235, 6.84599558], [-61.77954217, 6.8368453], [-61.77312663, 6.81916631], [-61.75933935, 6.81146204], [-61.73960191, 6.81316555], [-61.73729921, 6.80797747], [-61.72303357, 6.80022585], [-61.71234922, 6.75899466], [-61.6967774, 6.74646405], [-61.69484699, 6.73425001], [-61.68711957, 6.72491442], [-61.67847473, 6.72379693], [-61.66678686, 6.73070165], [-61.65199935, 6.72978404], [-61.64884218, 6.72001741], [-61.6338851, 6.71195451], [-61.62677643, 6.7212946], [-61.61955136, 6.72365266], [-61.60251901, 6.712281], [-61.57429202, 6.70829399], [-61.564995, 6.69929999], [-61.553096, 6.69935401], [-61.54233001, 6.70669101], [-61.529128, 6.72662598], [-61.51127502, 6.72825801], [-61.47985199, 6.75319499], [-61.47483299, 6.76782699], [-61.47631298, 6.77715301], [-61.48064499, 6.78337998], [-61.49095602, 6.78030501], [-61.49627099, 6.78476099], [-61.48901301, 6.80542199], [-61.46778, 6.80757399], [-61.46397901, 6.80197], [-61.44987801, 6.79571101], [-61.42784302, 6.799102], [-61.40627299, 6.79592401], [-61.38642144, 6.81127963]]]}}]}